#aV2008  7 19  0  0   .00000000      96 DD+AD WGS84 FIT  NGA
## 1488 518400.00000000   900.00000000 54666  .0000000000000
+   31     2  3  4  5  6  7  8  9 10 11 12 13 14 15 16 17 18
+         19 20 21 22 23 24 25 26 27 28 29 30 31 32  0  0  0
+          0  0  0  0  0  0  0  0  0  0  0  0  0  0  0  0  0
+          0  0  0  0  0  0  0  0  0  0  0  0  0  0  0  0  0
+          0  0  0  0  0  0  0  0  0  0  0  0  0  0  0  0  0
++         0  0  0  0  0  0  0  0  0  0  0  0  0  0  0  0  0
++         0  0  0  0  0  0  0  0  0  0  0  0  0  0  0  0  0
++         0  0  0  0  0  0  0  0  0  0  0  0  0  0  0  0  0
++         0  0  0  0  0  0  0  0  0  0  0  0  0  0  0  0  0
++         0  0  0  0  0  0  0  0  0  0  0  0  0  0  0  0  0
%c cc cc ccc ccc cccc cccc cccc cccc ccccc ccccc ccccc ccccc
%c cc cc ccc ccc cccc cccc cccc cccc ccccc ccccc ccccc ccccc
%f  0.0000000  0.000000000  0.00000000000  0.000000000000000
%f  0.0000000  0.000000000  0.00000000000  0.000000000000000
%i    0    0    0    0      0      0      0      0         0
%i    0    0    0    0      0      0      0      0         0
/*      NGA, ST. LOUIS,MO.                                  
/*   EPHEMERIS COMPUTED FROM  3 DAYS OF DATA                
/* CCCCCCCCCCCCCCCCCCCCCCCCCCCCCCCCCCCCCCCCCCCCCCCCCCCCCCCCC
/* CCCCCCCCCCCCCCCCCCCCCCCCCCCCCCCCCCCCCCCCCCCCCCCCCCCCCCCCC
*  2008  7 19  3  0   .00000000                                                 
P  2 -13563.606890 -22223.450017  -6300.704496    201.007169                    
V  2    -93.286141  -8283.808030  29757.773175      -.025267                    
P  3  19846.818970  11558.484229 -13899.739694    257.590163                    
V  3 -17288.226728   1712.457971 -23356.872283       .053964                    
P  4  -6105.955765 -25293.760275   4128.105935   -119.107519                    
V  4   5330.007083   3830.809898  30977.311926      -.098901                    
P  5 -19533.825497  10942.317029  13897.064523   -345.624943                    
V  5   7919.169055 -16635.285194  23892.759816       .258564                    
P  6  15287.328392  14045.978403 -16364.318789    162.057082                    
V  6 -21369.552808   -138.930992 -19862.718110       .033489                    
P  7  10776.095422 -12484.569212 -20832.952052     -2.352375                    
V  7  10131.430868  24388.811390  -9468.742691       .053522                    
P  8   2900.658806 -22062.303547 -14207.243562   -162.328364                    
V  8   7264.159121  16627.442463 -24945.954749      -.015395                    
P  9 -16534.275350  -4748.711175  19638.836498      5.959625                    
V  9  -9176.029651 -24655.995327 -13122.635244       .017281                    
P 10 -10110.120353 -11504.967766 -21817.023564     -3.024415                    
V 10  18142.525299 -20525.565336   2751.431316      -.004375                    
P 11  18395.931943    340.302587  19088.928797     23.132014                    
V 11  11609.256498  21979.586638 -11147.625298      -.006704                    
P 12 -19707.748230   5442.347341  16981.967773   -356.728046                    
V 12  12271.421235 -17658.401104  20095.178752       .007976                    
P 13  18972.162706  -7354.852576 -17184.399210    264.357161                    
V 13  20824.307842   5523.372002  20782.583992       .014740                    
P 14  -1048.782608  14678.367635  22216.562382   -242.521111                    
V 14 -27377.892465  -5252.397895   2082.799526       .044353                    
P 15 -25197.230117  -7052.945696  -4575.458031   -145.139967                    
V 15   6196.971736  -1953.632191 -30963.371251      -.063709                    
P 16   5095.426577  15903.579721 -20537.159218    116.352785                    
V 16 -17768.877889  19366.993400  10756.306734      -.017381                    
P 17    275.906300 -15394.576022  21696.979691     38.664062                    
V 17  27051.665174   4584.743799   2753.680891       .001147                    
P 18 -17689.806854  19524.016763   -563.528953   -154.817097                    
V 18  -2057.765702  -3071.900879 -31685.333375       .042917                    
P 19  25150.812774   8238.171723  -3195.527713     33.705569                    
V 19  -4659.032659   1723.353692 -31201.767307       .004897                    
P 20  20072.206914  -7237.463874  15683.733659    109.608744                    
V 20 -10687.231682  17261.778932  21517.153801      -.008462                    
P 21  -8114.883535  17184.113249 -18101.290619     57.543182                    
V 21  -9994.915270 -21612.822449 -16475.764243      -.013229                    
P 22  -8511.356026  22310.121430  11722.550715    211.467407                    
V 22 -11857.842288   9126.401358 -26392.742793       .000697                    
P 23  25689.686426   -766.242694  -7286.573767    365.005604                    
V 23   8614.014373   3591.604470  30017.084277       .018075                    
P 24 -14997.326934   3327.277052 -21490.353126    110.521367                    
V 24  -8185.570680 -26492.311233   1868.510360       .028063                    
P 25  13856.738933  -5669.024750 -21578.041434   -194.402378                    
V 25  12281.646417  25438.369160   1356.895395      -.123292                    
P 26 -23021.174496 -10855.382817  -8991.803783    294.923609                    
V 26  10531.547813   1093.185555 -29426.800483       .067422                    
P 27   7952.450676 -15130.436275 -19621.326962    203.805714                    
V 27  11952.365645  23599.750182 -13043.322933       .026951                    
P 28   9393.148611 -22347.927785  10838.418761    -21.147513                    
V 28  10592.756472  -8420.514869 -27856.613726      -.003245                    
P 29 -21517.645238   6125.667142 -14171.468377    -41.375743                    
V 29 -17507.085265  -5494.835802  24036.966464       .006329                    
P 30 -18759.834543  17551.139989   6189.687893     86.639366                    
V 30   2474.132389  -8579.288557  30234.863979       .018926                    
P 31   7525.419469  25267.295326   2897.231954    -24.862656                    
V 31  -3690.761518  -2273.752005  31712.400725      -.001812                    
P 32  17723.751938   1559.931311  20100.015854    308.017064                    
V 32 -16363.403741  18406.069171  13461.211398       .027610                    
EOF
